{
  "type": "FeatureCollection",
  "features": [
    {
      "type": "Feature",
      "properties": {
        "norad_id": 33924,
        "name": "COSMOS 2251 DEB",
        "group": "cosmos-2251-debris",
        "lat": 48.963902384238246,
        "lon": 67.55093377525921,
        "alt_km": 1365.683871135344,
        "timestamp": "2025-12-14T18:52:55.896380+00:00",
        "meta_object_name": "COSMOS 2251 DEB",
        "meta_object_id": "1993-036ED",
        "meta_epoch": "2025-12-13T20:53:26.170656",
        "meta_mean_motion": 13.50227318,
        "meta_eccentricity": 0.04040134,
        "meta_inclination": 73.9137,
        "meta_ra_of_asc_node": 268.3839,
        "meta_arg_of_pericenter": 303.6399,
        "meta_mean_anomaly": 52.6769,
        "meta_ephemeris_type": 0,
        "meta_classification_type": "U",
        "meta_norad_cat_id": 33924,
        "meta_element_set_no": 999,
        "meta_rev_at_epoch": 82754,
        "meta_bstar": 0.0010471838,
        "meta_mean_motion_dot": 1.087e-05,
        "meta_mean_motion_ddot": 0,
        "tle_line1": "1 33924U 93036ED  25347.87044179  .00001087  00000+0  10472-2 0  9994",
        "tle_line2": "2 33924  73.9137 268.3839 0404013 303.6399  52.6769 13.50227318827540"
      },
      "geometry": {
        "type": "Point",
        "coordinates": [
          67.55093377525921,
          48.963902384238246
        ]
      }
    },
    {
      "type": "Feature",
      "properties": {
        "norad_id": 33928,
        "name": "COSMOS 2251 DEB",
        "group": "cosmos-2251-debris",
        "lat": 36.37169424997854,
        "lon": 60.972659030068996,
        "alt_km": 706.4492333191611,
        "timestamp": "2025-12-14T18:52:55.896390+00:00",
        "meta_object_name": "COSMOS 2251 DEB",
        "meta_object_id": "1993-036EH",
        "meta_epoch": "2025-12-13T21:08:38.619456",
        "meta_mean_motion": 14.47407044,
        "meta_eccentricity": 0.00615161,
        "meta_inclination": 73.926,
        "meta_ra_of_asc_node": 50.4167,
        "meta_arg_of_pericenter": 344.2818,
        "meta_mean_anomaly": 15.6428,
        "meta_ephemeris_type": 0,
        "meta_classification_type": "U",
        "meta_norad_cat_id": 33928,
        "meta_element_set_no": 999,
        "meta_rev_at_epoch": 88661,
        "meta_bstar": 0.00032116198,
        "meta_mean_motion_dot": 1.177e-05,
        "meta_mean_motion_ddot": 0,
        "tle_line1": "1 33928U 93036EH  25347.88100254  .00001177  00000+0  32116-3 0  9996",
        "tle_line2": "2 33928  73.9260  50.4167 0061516 344.2818  15.6428 14.47407044886616"
      },
      "geometry": {
        "type": "Point",
        "coordinates": [
          60.972659030068996,
          36.37169424997854
        ]
      }
    },
    {
      "type": "Feature",
      "properties": {
        "norad_id": 33932,
        "name": "COSMOS 2251 DEB",
        "group": "cosmos-2251-debris",
        "lat": 63.20339703200231,
        "lon": 97.61359629308737,
        "alt_km": 753.3069733423499,
        "timestamp": "2025-12-14T18:52:55.896400+00:00",
        "meta_object_name": "COSMOS 2251 DEB",
        "meta_object_id": "1993-036EM",
        "meta_epoch": "2025-12-14T00:00:39.484800",
        "meta_mean_motion": 14.38763448,
        "meta_eccentricity": 0.00353656,
        "meta_inclination": 74.0344,
        "meta_ra_of_asc_node": 313.5922,
        "meta_arg_of_pericenter": 29.4623,
        "meta_mean_anomaly": 330.8514,
        "meta_ephemeris_type": 0,
        "meta_classification_type": "U",
        "meta_norad_cat_id": 33932,
        "meta_element_set_no": 999,
        "meta_rev_at_epoch": 88016,
        "meta_bstar": 0.00063702223,
        "meta_mean_motion_dot": 1.945e-05,
        "meta_mean_motion_ddot": 0,
        "tle_line1": "1 33932U 93036EM  25348.00045700  .00001945  00000+0  63702-3 0  9998",
        "tle_line2": "2 33932  74.0344 313.5922 0035365  29.4623 330.8514 14.38763448880162"
      },
      "geometry": {
        "type": "Point",
        "coordinates": [
          97.61359629308737,
          63.20339703200231
        ]
      }
    },
    {
      "type": "Feature",
      "properties": {
        "norad_id": 33933,
        "name": "COSMOS 2251 DEB",
        "group": "cosmos-2251-debris",
        "lat": -71.0337182244442,
        "lon": 0.30971063851860425,
        "alt_km": 827.7809689320584,
        "timestamp": "2025-12-14T18:52:55.896410+00:00",
        "meta_object_name": "COSMOS 2251 DEB",
        "meta_object_id": "1993-036EN",
        "meta_epoch": "2025-12-13T21:28:48.541728",
        "meta_mean_motion": 14.33491019,
        "meta_eccentricity": 0.00708008,
        "meta_inclination": 74.0895,
        "meta_ra_of_asc_node": 58.0312,
        "meta_arg_of_pericenter": 66.0868,
        "meta_mean_anomaly": 294.7679,
        "meta_ephemeris_type": 0,
        "meta_classification_type": "U",
        "meta_norad_cat_id": 33933,
        "meta_element_set_no": 999,
        "meta_rev_at_epoch": 87801,
        "meta_bstar": 0.00036151211,
        "meta_mean_motion_dot": 1.002e-05,
        "meta_mean_motion_ddot": 0,
        "tle_line1": "1 33933U 93036EN  25347.89500627  .00001002  00000+0  36151-3 0  9991",
        "tle_line2": "2 33933  74.0895  58.0312 0070800  66.0868 294.7679 14.33491019878017"
      },
      "geometry": {
        "type": "Point",
        "coordinates": [
          0.30971063851860425,
          -71.0337182244442
        ]
      }
    },
    {
      "type": "Feature",
      "properties": {
        "norad_id": 33934,
        "name": "COSMOS 2251 DEB",
        "group": "cosmos-2251-debris",
        "lat": -44.05065007565379,
        "lon": -67.25355836965973,
        "alt_km": 691.3269276969258,
        "timestamp": "2025-12-14T18:52:55.896421+00:00",
        "meta_object_name": "COSMOS 2251 DEB",
        "meta_object_id": "1993-036EP",
        "meta_epoch": "2025-12-13T23:44:51.994752",
        "meta_mean_motion": 14.59125436,
        "meta_eccentricity": 0.00156137,
        "meta_inclination": 74.0378,
        "meta_ra_of_asc_node": 98.1902,
        "meta_arg_of_pericenter": 221.9354,
        "meta_mean_anomaly": 138.0617,
        "meta_ephemeris_type": 0,
        "meta_classification_type": "U",
        "meta_norad_cat_id": 33934,
        "meta_element_set_no": 999,
        "meta_rev_at_epoch": 88757,
        "meta_bstar": 0.0010859506,
        "meta_mean_motion_dot": 5.096e-05,
        "meta_mean_motion_ddot": 0,
        "tle_line1": "1 33934U 93036EP  25347.98949068  .00005096  00000+0  10860-2 0  9993",
        "tle_line2": "2 33934  74.0378  98.1902 0015613 221.9354 138.0617 14.59125436887575"
      },
      "geometry": {
        "type": "Point",
        "coordinates": [
          -67.25355836965973,
          -44.05065007565379
        ]
      }
    },
    {
      "type": "Feature",
      "properties": {
        "norad_id": 33936,
        "name": "COSMOS 2251 DEB",
        "group": "cosmos-2251-debris",
        "lat": 16.58766769146506,
        "lon": -151.32445453959875,
        "alt_km": 675.0132380292771,
        "timestamp": "2025-12-14T18:52:55.896431+00:00",
        "meta_object_name": "COSMOS 2251 DEB",
        "meta_object_id": "1993-036ER",
        "meta_epoch": "2025-12-13T20:45:52.854048",
        "meta_mean_motion": 14.60282458,
        "meta_eccentricity": 0.00274682,
        "meta_inclination": 74.0191,
        "meta_ra_of_asc_node": 35.3329,
        "meta_arg_of_pericenter": 190.5445,
        "meta_mean_anomaly": 169.5149,
        "meta_ephemeris_type": 0,
        "meta_classification_type": "U",
        "meta_norad_cat_id": 33936,
        "meta_element_set_no": 999,
        "meta_rev_at_epoch": 88906,
        "meta_bstar": 0.00079585646,
        "meta_mean_motion_dot": 3.835e-05,
        "meta_mean_motion_ddot": 0,
        "tle_line1": "1 33936U 93036ER  25347.86519507  .00003835  00000+0  79586-3 0  9993",
        "tle_line2": "2 33936  74.0191  35.3329 0027468 190.5445 169.5149 14.60282458889064"
      },
      "geometry": {
        "type": "Point",
        "coordinates": [
          -151.32445453959875,
          16.58766769146506
        ]
      }
    },
    {
      "type": "Feature",
      "properties": {
        "norad_id": 33938,
        "name": "COSMOS 2251 DEB",
        "group": "cosmos-2251-debris",
        "lat": -72.57869059303104,
        "lon": 137.6133809270492,
        "alt_km": 731.198123830377,
        "timestamp": "2025-12-14T18:52:55.896442+00:00",
        "meta_object_name": "COSMOS 2251 DEB",
        "meta_object_id": "1993-036ET",
        "meta_epoch": "2025-12-13T23:55:31.418688",
        "meta_mean_motion": 14.46798683,
        "meta_eccentricity": 0.00168507,
        "meta_inclination": 74.045,
        "meta_ra_of_asc_node": 204.8291,
        "meta_arg_of_pericenter": 286.9367,
        "meta_mean_anomaly": 197.8391,
        "meta_ephemeris_type": 0,
        "meta_classification_type": "U",
        "meta_norad_cat_id": 33938,
        "meta_element_set_no": 999,
        "meta_rev_at_epoch": 88418,
        "meta_bstar": 0.00054047922,
        "meta_mean_motion_dot": 1.934e-05,
        "meta_mean_motion_ddot": 0,
        "tle_line1": "1 33938U 93036ET  25347.99689142  .00001934  00000+0  54048-3 0  9996",
        "tle_line2": "2 33938  74.0450 204.8291 0016850 286.9367 197.8391 14.46798683884188"
      },
      "geometry": {
        "type": "Point",
        "coordinates": [
          137.6133809270492,
          -72.57869059303104
        ]
      }
    }
  ]
}